{
    "links": {
        "self": "http://www.neowsapp.com/rest/v1/neo/3843360?api_key=iIulBulltgU6a56xZRHN4H3l9WmuAYTsLGpBGhQ2"
    },
    "id": "3843360",
    "neo_reference_id": "3843360",
    "name": "(2019 OJ1)",
    "designation": "2019 OJ1",
    "nasa_jpl_url": "http://ssd.jpl.nasa.gov/sbdb.cgi?sstr=3843360",
    "absolute_magnitude_h": 21.5,
    "estimated_diameter": {
        "kilometers": {
            "estimated_diameter_min": 0.1332155667,
            "estimated_diameter_max": 0.2978790628
        },
        "meters": {
            "estimated_diameter_min": 133.2155666981,
            "estimated_diameter_max": 297.8790627982
        },
        "miles": {
            "estimated_diameter_min": 0.0827762899,
            "estimated_diameter_max": 0.1850934111
        },
        "feet": {
            "estimated_diameter_min": 437.0589598459,
            "estimated_diameter_max": 977.2935443908
        }
    },
    "is_potentially_hazardous_asteroid": false,
    "close_approach_data": [
        {
            "close_approach_date": "2019-07-30",
            "close_approach_date_full": "2019-Jul-30 03:34",
            "epoch_date_close_approach": 1564457640000,
            "relative_velocity": {
                "kilometers_per_second": "13.2995250991",
                "kilometers_per_hour": "47878.2903567931",
                "miles_per_hour": "29749.7076941974"
            },
            "miss_distance": {
                "astronomical": "0.0994365983",
                "lunar": "38.6808367387",
                "kilometers": "14875503.305725621",
                "miles": "9243209.1408747298"
            },
            "orbiting_body": "Earth"
        },
        {
            "close_approach_date": "2132-08-23",
            "close_approach_date_full": "2132-Aug-23 14:18",
            "epoch_date_close_approach": 5132557080000,
            "relative_velocity": {
                "kilometers_per_second": "24.1225316001",
                "kilometers_per_hour": "86841.1137604432",
                "miles_per_hour": "53959.6909363154"
            },
            "miss_distance": {
                "astronomical": "0.4280307457",
                "lunar": "166.5039600773",
                "kilometers": "64032487.851231659",
                "miles": "39787942.9593245342"
            },
            "orbiting_body": "Earth"
        },
        {
            "close_approach_date": "2135-04-02",
            "close_approach_date_full": "2135-Apr-02 00:11",
            "epoch_date_close_approach": 5214759060000,
            "relative_velocity": {
                "kilometers_per_second": "18.3068833371",
                "kilometers_per_hour": "65904.780013529",
                "miles_per_hour": "40950.6673367398"
            },
            "miss_distance": {
                "astronomical": "0.2347645012",
                "lunar": "91.3233909668",
                "kilometers": "35120269.331132444",
                "miles": "21822723.4292339672"
            },
            "orbiting_body": "Earth"
        }
    ],
    "orbital_data": {
        "orbit_id": "14",
        "orbit_determination_date": "2019-09-20 05:56:17",
        "first_observation_date": "2019-07-26",
        "last_observation_date": "2019-09-03",
        "data_arc_in_days": 39,
        "observations_used": 88,
        "orbit_uncertainty": "7",
        "minimum_orbit_intersection": ".0826604",
        "jupiter_tisserand_invariant": "3.635",
        "epoch_osculation": "2459000.5",
        "eccentricity": ".5449533963872859",
        "semi_major_axis": "1.998741896916341",
        "inclination": "6.948306788019908",
        "ascending_node_longitude": "164.6994344998583",
        "orbital_period": "1032.127859946278",
        "perihelion_distance": ".9095207116902144",
        "perihelion_argument": "87.66275122565794",
        "aphelion_distance": "3.087963082142467",
        "perihelion_time": "2458654.553633545486",
        "mean_anomaly": "120.6640153382813",
        "mean_motion": ".3487939953667543",
        "equinox": "J2000",
        "orbit_class": {
            "orbit_class_type": "APO",
            "orbit_class_description": "Near-Earth asteroid orbits which cross the Earth’s orbit similar to that of 1862 Apollo",
            "orbit_class_range": "a (semi-major axis) > 1.0 AU; q (perihelion) < 1.017 AU"
        }
    },
    "is_sentry_object": false
}